[{"OBJECT_NAME":"OBJECT F","OBJECT_ID":"2025-108F","EPOCH":"2026-03-09T23:20:53.522880","MEAN_MOTION":15.23792837,"ECCENTRICITY":0.00112374,"INCLINATION":97.4753,"RA_OF_ASC_NODE":146.7616,"ARG_OF_PERICENTER":356.2264,"MEAN_ANOMALY":3.8886,"EPHEMERIS_TYPE":0,"CLASSIFICATION_TYPE":"U","NORAD_CAT_ID":64092,"ELEMENT_SET_NO":999,"REV_AT_EPOCH":4437,"BSTAR":0.0010326251,"MEAN_MOTION_DOT":0.00024889,"MEAN_MOTION_DDOT":0},{"OBJECT_NAME":"STARLINK-36151","OBJECT_ID":"2025-299X","EPOCH":"2026-03-09T22:00:01.999584","MEAN_MOTION":15.36387486,"ECCENTRICITY":0.00011462,"INCLINATION":42.9991,"RA_OF_ASC_NODE":167.613,"ARG_OF_PERICENTER":265.1086,"MEAN_ANOMALY":42.0682,"EPHEMERIS_TYPE":0,"CLASSIFICATION_TYPE":"U","NORAD_CAT_ID":67123,"ELEMENT_SET_NO":999,"REV_AT_EPOCH":590,"BSTAR":-0.062696381,"MEAN_MOTION_DOT":-0.02019994,"MEAN_MOTION_DDOT":0}]
